     2.100          NAVIGATION                              RINEX VERSION / TYPE
fic2rin                                 11/29/2016 00:17:57 PGM / RUN BY / DATE
                                                            END OF HEADER
24 16 11 28  8  0  0.0 -.267354771495D-04 -.568434188608D-12  .000000000000D+00
     .760000000000D+02  .109156250000D+03  .489698969356D-08  .477840372632D+00
     .568479299545D-05  .507583050057D-02  .420585274696D-05  .515371759605D+04
     .115200000000D+06  .819563865662D-07 -.243363161272D+01  .119209289551D-06
     .947560029953D+00  .292625000000D+03  .402019865284D+00 -.843320841984D-08
     .314298806093D-09  .100000000000D+01  .192500000000D+04  .000000000000D+00
     .340000000000D+01  .000000000000D+00  .232830643654D-08  .760000000000D+02
     .108006000000D+06  .400000000000D+01
25 16 11 28  8  0  0.0 -.290000345558D-03 -.682121026330D-11  .000000000000D+00
     .710000000000D+02 -.765312500000D+02  .443839916285D-08 -.159098441342D+01
    -.395625829697D-05  .573617022019D-02  .260211527348D-05  .515366483688D+04
     .115200000000D+06  .782310962677D-07 -.135566325720D+01 -.223517417908D-07
     .977772234607D+00  .337562500000D+03  .759021942071D+00 -.819998441941D-08
    -.155363614375D-09  .100000000000D+01  .192500000000D+04  .000000000000D+00
     .240000000000D+01  .000000000000D+00  .558793544769D-08  .710000000000D+02
     .108006000000D+06  .400000000000D+01
26 16 11 28  8  0  0.0 -.505722127855D-03 -.397903932026D-11  .000000000000D+00
     .330000000000D+02 -.736250000000D+02  .488306054193D-08 -.192936357963D+01
    -.390969216824D-05  .129992293660D-02  .227056443691D-05  .515361331177D+04
     .115200000000D+06 -.111758708954D-07 -.136790664536D+01 -.186264514923D-08
     .959648720375D+00  .338312500000D+03 -.200877036775D+00 -.846678124685D-08
    -.172507185617D-09  .100000000000D+01  .192500000000D+04  .000000000000D+00
     .240000000000D+01  .000000000000D+00  .745058059692D-08  .330000000000D+02
     .108006000000D+06  .400000000000D+01
27 16 11 28  8  0  0.0  .171653926373D-03  .534328137292D-11  .000000000000D+00
     .560000000000D+02 -.920000000000D+02  .398230873629D-08  .237801993910D+01
    -.465102493763D-05  .396684498992D-02  .110715627670D-04  .515366429329D+04
     .115200000000D+06 -.115483999252D-06 -.315302904786D+00  .000000000000D+00
     .973574246349D+00  .172093750000D+03  .305549075505D+00 -.764531845820D-08
     .814319633967D-10  .100000000000D+01  .192500000000D+04  .000000000000D+00
     .240000000000D+01  .000000000000D+00  .139698386192D-08  .560000000000D+02
     .108006000000D+06  .400000000000D+01
28 16 11 28  8  0  0.0  .570312142372D-03  .272848410532D-11  .000000000000D+00
     .400000000000D+02 -.885000000000D+02  .405195449445D-08 -.309967665080D+01
    -.460445880890D-05  .201251306571D-01  .246800482273D-05  .515363759232D+04
     .115200000000D+06  .374391674995D-06 -.127893806522D+01 -.167638063431D-07
     .988971072923D+00  .344218750000D+03 -.159821454810D+01 -.775389440940D-08
    -.198222542479D-09  .100000000000D+01  .192500000000D+04  .000000000000D+00
     .240000000000D+01  .000000000000D+00 -.111758708954D-07  .400000000000D+02
     .108006000000D+06  .400000000000D+01
29 16 11 28  8  0  0.0  .641419552267D-03 -.193267624127D-11  .000000000000D+00
     .660000000000D+02 -.695625000000D+02  .385694637158D-08 -.175390732507D+01
    -.354461371899D-05  .501056783833D-03  .116713345051D-04  .515371895218D+04
     .115200000000D+06  .167638063431D-07 -.254446412383D+00 -.577419996262D-07
     .979704404141D+00  .161718750000D+03 -.129726766658D+00 -.764138972313D-08
     .957182727646D-10  .100000000000D+01  .192500000000D+04  .000000000000D+00
     .240000000000D+01  .000000000000D+00 -.102445483208D-07  .660000000000D+02
     .108006000000D+06  .400000000000D+01
30 16 11 28  8  0  0.0  .158087350428D-03  .795807864051D-12  .000000000000D+00
     .113000000000D+03  .104000000000D+03  .478019911448D-08 -.471845207070D+00
     .542961061001D-05  .235514517408D-02  .386126339436D-05  .515374821472D+04
     .115200000000D+06  .223517417908D-07 -.234176425748D+01 -.111758708954D-07
     .950198291527D+00  .296937500000D+03 -.313598780189D+01 -.839356391134D-08
     .367515308488D-09  .100000000000D+01  .192500000000D+04  .000000000000D+00
     .340000000000D+01  .000000000000D+00  .372529029846D-08  .113000000000D+03
     .108006000000D+06  .400000000000D+01
31 16 11 28  8  0  0.0  .234182458371D-03 -.216004991671D-11  .000000000000D+00
     .900000000000D+01  .105906250000D+03  .443697053192D-08 -.617201089748D+00
     .536814332008D-05  .850523554254D-02  .414066016674D-05  .515360250854D+04
     .115200000000D+06  .353902578354D-07 -.237311540677D+01 -.203028321266D-06
     .969240606087D+00  .299656250000D+03 -.346924116062D+00 -.827534470132D-08
     .425374861428D-09  .100000000000D+01  .192500000000D+04  .000000000000D+00
     .240000000000D+01  .000000000000D+00 -.135041773319D-07  .900000000000D+01
     .108006000000D+06  .400000000000D+01
 2 16 11 28  7 59 44.0  .518851913512D-03 -.579802872380D-11  .000000000000D+00
     .120000000000D+02  .372187500000D+02  .516735809835D-08  .641880460692D+00
     .205077230930D-05  .161915344652D-01  .784918665886D-05  .515367861938D+04
     .115184000000D+06 -.208616256714D-06  .692317803301D+00  .109896063805D-06
     .944652187687D+00  .224218750000D+03 -.206308865062D+01 -.854892752572D-08
     .307512809143D-09  .100000000000D+01  .192500000000D+04  .000000000000D+00
     .240000000000D+01  .000000000000D+00 -.200234353542D-07  .120000000000D+02
     .110166000000D+06  .400000000000D+01
30 16 11 28  7 59 44.0  .158087350428D-03  .795807864051D-12  .000000000000D+00
     .000000000000D+00  .104000000000D+03  .478019911448D-08 -.474175351764D+00
     .542961061001D-05  .235515343957D-02  .386126339436D-05  .515374820709D+04
     .115184000000D+06  .223517417908D-07 -.234176410973D+01 -.111758708954D-07
     .950198294453D+00  .296937500000D+03 -.313599122950D+01 -.839356391134D-08
     .367872466222D-09  .100000000000D+01  .192500000000D+04  .000000000000D+00
     .240000000000D+01  .000000000000D+00  .372529029846D-08  .000000000000D+00
     .111096000000D+06  .400000000000D+01
 2 16 11 28  9 59 44.0  .518810469657D-03 -.579802872380D-11  .000000000000D+00
     .200000000000D+02  .254062500000D+02  .502306637373D-08  .169196384504D+01
     .109709799290D-05  .161924997810D-01  .815838575363D-05  .515368211365D+04
     .122384000000D+06 -.393018126488D-06  .692255526878D+00 -.292435288429D-06
     .944655947386D+00  .217718750000D+03 -.206299045517D+01 -.824927218673D-08
     .508949771229D-09  .100000000000D+01  .192500000000D+04  .000000000000D+00
     .240000000000D+01  .000000000000D+00 -.200234353542D-07  .200000000000D+02
     .115206000000D+06  .400000000000D+01
30 16 11 28  9 59 44.0  .158092938364D-03  .795807864051D-12  .000000000000D+00
     .390000000000D+02  .107218750000D+03  .478412784956D-08  .575869910402D+00
     .559538602829D-05  .235431978945D-02  .426732003689D-05  .515374665070D+04
     .122384000000D+06  .186264514923D-07 -.234182454872D+01  .260770320892D-07
     .950200902836D+00  .290687500000D+03 -.313589843807D+01 -.839499254228D-08
     .359300680601D-09  .100000000000D+01  .192500000000D+04  .000000000000D+00
     .240000000000D+01  .000000000000D+00  .372529029846D-08  .390000000000D+02
     .115206000000D+06  .400000000000D+01
 1 16 11 28 10  0  0.0  .419192947447D-04  .125055521494D-11  .000000000000D+00
     .720000000000D+02  .253437500000D+02  .468662378812D-08  .122571910092D+01
     .145472586155D-05  .601265497971D-02  .767596065998D-05  .515369459724D+04
     .122400000000D+06  .279396772385D-07  .741776374718D+00  .108033418655D-06
     .965764115860D+00  .232968750000D+03  .563841628256D+00 -.808069373619D-08
     .446804325479D-09  .100000000000D+01  .192500000000D+04  .000000000000D+00
     .240000000000D+01  .000000000000D+00  .512227416039D-08  .720000000000D+02
     .115206000000D+06  .400000000000D+01
 3 16 11 28 10  0  0.0 -.100400298834D-03 -.170530256582D-11  .000000000000D+00
     .690000000000D+02 -.266562500000D+02  .495984945478D-08 -.155650911188D+00
    -.144168734550D-05  .385512248613D-03  .545755028725D-05  .515356348801D+04
     .122400000000D+06  .279396772385D-07  .178402109290D+01  .130385160446D-07
     .959033187353D+00  .271187500000D+03  .863686888574D+00 -.819498421113D-08
    -.436089593453D-09  .100000000000D+01  .192500000000D+04  .000000000000D+00
     .240000000000D+01  .000000000000D+00  .186264514923D-08  .690000000000D+02
     .115206000000D+06  .400000000000D+01
 4 16 11 28 10  0  0.0  .197500921786D-04  .284217094304D-11  .000000000000D+00
     .200000000000D+02  .550312500000D+02  .399695220339D-08 -.151809036397D+01
     .292994081974D-05  .831035245210D-02  .119302421808D-04  .515374854660D+04
     .122400000000D+06 -.152736902237D-06  .294355275040D+01  .745058059692D-07
     .966390076563D+00  .156218750000D+03 -.945912509167D+00 -.775425156713D-08
    -.135362781260D-09  .100000000000D+01  .192500000000D+04  .000000000000D+00
     .240000000000D+01  .630000000000D+02 -.419095158577D-08  .200000000000D+02
     .115206000000D+06  .400000000000D+01
 5 16 11 28 10  0  0.0 -.753556378186D-04  .227373675443D-11  .000000000000D+00
     .980000000000D+02 -.324375000000D+02  .519985945216D-08 -.212211666805D+01
    -.170245766640D-05  .490164605435D-02  .526942312717D-05  .515363323212D+04
     .122400000000D+06  .447034835815D-07  .176963107727D+01 -.521540641785D-07
     .946038704869D+00  .270750000000D+03  .559284941263D+00 -.832891836145D-08
    -.338228374284D-09  .100000000000D+01  .192500000000D+04  .000000000000D+00
     .240000000000D+01  .000000000000D+00 -.107102096081D-07  .980000000000D+02
     .115206000000D+06  .400000000000D+01
